NORAD_CAT_ID,OBJECT_NAME,OBJECT_TYPE,EPOCH,MEAN_MOTION,ECCENTRICITY,INCLINATION,RA_OF_ASC_NODE,ARG_OF_PERICENTER,MEAN_ANOMALY,BSTAR,MEAN_MOTION_DOT,MEAN_MOTION_DDOT,TLE_LINE0,TLE_LINE1,TLE_LINE2,SEMIMAJOR_AXIS,PERIOD,APOGEE,PERIGEE,DECAYED
52533.0,STARLINK-3951,PAYLOAD,2022-11-05 16:44:42,15.08825333,0.0002255,53.215,205.8881,46.1158,314.002,-0.0003734,-6.224e-05,0.0,0 STARLINK-3951,1 52533U 22051A   22309.69770893 -.00006224  00000-0 -37340-3 0  9999,2 52533  53.2150 205.8881 0002255  46.1158 314.0020 15.08825333 27330,6917.925,95.438,541.35,538.23,0.0
52533.0,STARLINK-3951,PAYLOAD,2022-11-06 10:13:57,15.08832527,0.000205,53.216,202.6145,47.7524,312.3642,-5.69e-05,-1.194e-05,0.0,0 STARLINK-3951,1 52533U 22051A   22310.42635726 -.00001194  00000-0 -56900-4 0  9992,2 52533  53.2160 202.6145 0002050  47.7524 312.3642 15.08832527 27374,6917.903,95.438,541.186,538.35,0.0
52533.0,STARLINK-3951,PAYLOAD,2022-11-06 21:21:39,15.08824285,0.0001963,53.2159,200.5339,47.0047,313.1109,0.00010249,1.343e-05,0.0,0 STARLINK-3951,1 52533U 22051A   22310.89004347  .00001343  00000-0  10249-3 0  9991,2 52533  53.2159 200.5339 0001963  47.0047 313.1109 15.08824285 27514,6917.928000000001,95.439,541.151,538.435,0.0
52533.0,STARLINK-3951,PAYLOAD,2022-11-07 16:26:18,15.08831006,0.0001826,53.2151,196.9647,50.5574,309.5579,0.00033955,5.119e-05,0.0,0 STARLINK-3951,1 52533U 22051A   22311.68493192  .00005119  00000-0  33955-3 0  9993,2 52533  53.2151 196.9647 0001826  50.5574 309.5579 15.08831006 27562,6917.908,95.438,541.036,538.51,0.0
52533.0,STARLINK-3951,PAYLOAD,2022-11-08 03:33:59,15.08859413,0.0001914,53.2148,194.8847,48.3068,311.8088,0.00082902,0.00012937,0.0,0 STARLINK-3951,1 52533U 22051A   22312.14860427  .00012937  00000-0  82902-3 0  9996,2 52533  53.2148 194.8847 0001914  48.3068 311.8088 15.08859413 27707,6917.821,95.436,541.01,538.362,0.0
52533.0,STARLINK-3951,PAYLOAD,2022-11-08 09:55:31,15.08867753,0.000193,53.2147,193.6952,48.3518,311.7639,0.00087861,0.00013733,0.0,0 STARLINK-3951,1 52533U 22051A   22312.41356005  .00013733  00000-0  87861-3 0  9992,2 52533  53.2147 193.6952 0001930  48.3518 311.7639 15.08867753 27671,6917.795999999999,95.436,540.996,538.325,0.0
52533.0,STARLINK-3951,PAYLOAD,2022-11-08 16:17:03,15.08878254,0.0001935,53.2147,192.5057,48.6851,311.4307,0.00093255,0.000146,0.0,0 STARLINK-3951,1 52533U 22051A   22312.67851350  .00014600  00000-0  93255-3 0  9991,2 52533  53.2147 192.5057 0001935  48.6851 311.4307 15.08878254 27715,6917.763000000001,95.435,540.967,538.29,0.0
52533.0,STARLINK-3951,PAYLOAD,2022-11-09 01:49:21,15.08878654,0.0001686999999999,53.2148,190.7216,37.3648,322.7461,0.00054324,8.377e-05,0.0,0 STARLINK-3951,1 52533U 22051A   22313.07594395  .00008377  00000-0  54324-3 0  9997,2 52533  53.2148 190.7216 0001687  37.3648 322.7461 15.08878654 27772,6917.762,95.435,540.794,538.46,0.0
52533.0,STARLINK-3951,PAYLOAD,2022-11-09 20:53:59,15.0880261,0.000209,53.2112,187.1527,11.1511,348.9527,-0.0013262,-0.00021312,0.0,0 STARLINK-3951,1 52533U 22051A   22313.87083311 -.00021312  00000-0 -13262-2 0  9997,2 52533  53.2112 187.1527 0002090  11.1511 348.9527 15.08802610 27969,6917.995,95.44,541.306,538.414,0.0
52533.0,STARLINK-3951,PAYLOAD,2022-11-10 00:04:46,15.08798114,0.0001893,53.2148,186.55900000000003,46.0768,314.038,-0.0011138,-0.0001795,0.0,0 STARLINK-3951,1 52533U 22051A   22314.00331787 -.00017950  00000-0 -11138-2 0  9999,2 52533  53.2148 186.5590 0001893  46.0768 314.0380 15.08798114 27911,6918.0080000000025,95.44,541.183,538.564,0.0
52533.0,STARLINK-3951,PAYLOAD,2022-11-10 20:44:48,15.08815834,0.0001796,53.2152,182.6927,46.7513,313.3629,0.00081198,0.0001264999999999,0.0,0 STARLINK-3951,1 52533U 22051A   22314.86445597  .00012650  00000-0  81198-3 0  9992,2 52533  53.2152 182.6927 0001796  46.7513 313.3629 15.08815834 28046,6917.954000000002,95.439,541.062,538.577,0.0
52533.0,STARLINK-3951,PAYLOAD,2022-11-11 01:30:58,15.08829188,0.0001743,53.2148,181.8018,45.9943,314.1192,0.00086026,0.00013426,0.0,0 STARLINK-3951,1 52533U 22051A   22315.06317652  .00013426  00000-0  86026-3 0  9992,2 52533  53.2148 181.8018 0001743  45.9943 314.1192 15.08829188 28145,6917.913000000001,95.438,540.984,538.573,0.0
52533.0,STARLINK-3951,PAYLOAD,2022-11-11 07:52:31,15.08835568,0.0001739,53.2148,180.6125,47.9666,312.1474,0.00077718,0.00012101,0.0,0 STARLINK-3951,1 52533U 22051A   22315.32813719  .00012101  00000-0  77718-3 0  9993,2 52533  53.2148 180.6125 0001739  47.9666 312.1474 15.08835568 28117,6917.894,95.438,540.962,538.556,0.0
52533.0,STARLINK-3951,PAYLOAD,2022-11-11 22:10:59,15.08849442,0.0001726,53.2145,177.9363,49.3194,310.7948,0.00085205,0.00013302,0.0,0 STARLINK-3951,1 52533U 22051A   22315.92429739  .00013302  00000-0  85205-3 0  9998,2 52533  53.2145 177.9363 0001726  49.3194 310.7948 15.08849442 28201,6917.852,95.437,540.911,538.523,0.0
52533.0,STARLINK-3951,PAYLOAD,2022-11-12 14:04:49,15.08867886,0.0001862,53.2143,174.9626,51.4879,308.628,0.00077389,0.00012059,0.0,0 STARLINK-3951,1 52533U 22051A   22316.58668756  .00012059  00000-0  77389-3 0  9997,2 52533  53.2143 174.9626 0001862  51.4879 308.6280 15.08867886 28378,6917.795,95.436,540.948,538.372,0.0
52533.0,STARLINK-3951,PAYLOAD,2022-11-12 18:50:59,15.08858713,0.000186,53.2144,174.0697,47.852,312.2629,0.00024239,3.574e-05,0.0,0 STARLINK-3951,1 52533U 22051A   22316.78540674  .00003574  00000-0  24239-3 0  9995,2 52533  53.2144 174.0697 0001860  47.8520 312.2629 15.08858713 28409,6917.823,95.436,540.975,538.401,0.0
52533.0,STARLINK-3951,PAYLOAD,2022-11-12 20:26:22,15.08857879,0.0001761,53.2143,173.7718,46.6925,313.4213,0.00031858,4.788e-05,0.0,0 STARLINK-3951,1 52533U 22051A   22316.85164581  .00004788  00000-0  31858-3 0  9995,2 52533  53.2143 173.7718 0001761  46.6925 313.4213 15.08857879 28341,6917.826,95.436,540.909,538.4730000000002,0.0
52533.0,STARLINK-3951,PAYLOAD,2022-11-13 07:34:03,15.08854212,0.0001941,53.2136,171.6902,47.7315,312.3842,4.7169e-05,4.63e-06,0.0,0 STARLINK-3951,1 52533U 22051A   22317.31532242  .00000463  00000-0  47169-4 0  9999,2 52533  53.2136 171.6902 0001941  47.7315 312.3842 15.08854212 28412,6917.837,95.437,541.045,538.359,0.0
52533.0,STARLINK-3951,PAYLOAD,2022-11-13 18:41:46,15.08830804,0.0001702,53.2136,169.6076,46.8167,313.2967,-0.0004256,-7.053e-05,0.0,0 STARLINK-3951,1 52533U 22051A   22317.77900748 -.00007053  00000-0 -42560-3 0  9992,2 52533  53.2136 169.6076 0001702  46.8167 313.2967 15.08830804 28555,6917.908,95.438,540.951,538.596,0.0
52533.0,STARLINK-3951,PAYLOAD,2022-11-14 07:24:52,15.08833484,0.0001899,53.2149,167.2288,48.5447,311.5708,-0.00017737,-3.109e-05,0.0,0 STARLINK-3951,1 52533U 22051A   22318.30893538 -.00003109  00000-0 -17737-3 0  9996,2 52533  53.2149 167.2288 0001899  48.5447 311.5708 15.08833484 28567,6917.9,95.438,541.0790000000002,538.452,0.0
52533.0,STARLINK-3951,PAYLOAD,2022-11-14 20:07:57,15.08833417,0.0001994,53.2147,164.8493,52.7991,307.3183,-4.810100000000001e-05,-1.054e-05,0.0,0 STARLINK-3951,1 52533U 22051A   22318.83885845 -.00001054  00000-0 -48101-4 0  9993,2 52533  53.2147 164.8493 0001994  52.7991 307.3183 15.08833417 28716,6917.901,95.438,541.145,538.386,0.0
52533.0,STARLINK-3951,PAYLOAD,2022-11-15 13:37:10,15.08864627,0.0001977,53.2157,161.5785,54.8446,305.2731,-0.00041912,-6.957e-05,0.0,0 STARLINK-3951,1 52533U 22051A   22319.56748662 -.00006957  00000-0 -41912-3 0  9998,2 52533  53.2157 161.5785 0001977  54.8446 305.2731 15.08864627 28751,6917.805,95.436,541.038,538.302,0.0
52533.0,STARLINK-3951,PAYLOAD,2022-11-15 15:12:35,15.08824824,0.0001792,53.2152,161.2814,47.8875,312.2269,0.00010484,1.3800000000000008e-05,0.0,0 STARLINK-3951,1 52533U 22051A   22319.63374717  .00001380  00000-0  10484-3 0  9995,2 52533  53.2152 161.2814 0001792  47.8875 312.2269 15.08824824 28837,6917.927,95.439,541.031,538.552,0.0
52533.0,STARLINK-3951,PAYLOAD,2022-11-15 19:58:45,15.08820572,0.0001868,53.2156,160.3892,57.8762,302.2411,5.604600000000001e-05,6.04e-06,0.0,0 STARLINK-3951,1 52533U 22051A   22319.83247394  .00000604  00000-0  56046-4 0  9990,2 52533  53.2156 160.3892 0001868  57.8762 302.2411 15.08820572 28796,6917.94,95.439,541.097,538.513,0.0
52533.0,STARLINK-3951,PAYLOAD,2022-11-15 21:34:07,15.08836324,0.0001949,53.215,160.0924,49.3148,310.8013,0.00023066,3.384e-05,0.0,0 STARLINK-3951,1 52533U 22051A   22319.89870019  .00003384  00000-0  23066-3 0  9995,2 52533  53.2150 160.0924 0001949  49.3148 310.8013 15.08836324 28871,6917.892,95.438,541.105,538.408,0.0
52533.0,STARLINK-3951,PAYLOAD,2022-11-16 07:06:26,15.08842262,0.000197,53.2149,158.3085,48.7175,311.3987,0.00023613,3.472e-05,0.0,0 STARLINK-3951,1 52533U 22051A   22320.29613817  .00003472  00000-0  23613-3 0  9998,2 52533  53.2149 158.3085 0001970  48.7175 311.3987 15.08842262 28867,6917.873000000001,95.437,541.101,538.376,0.0
52533.0,STARLINK-3951,PAYLOAD,2022-11-16 19:49:31,15.08851417,0.0001982,53.2147,155.9288,51.4868,308.6301,0.00029264,4.374e-05,0.0,0 STARLINK-3951,1 52533U 22051A   22320.82605711  .00004374  00000-0  29264-3 0  9991,2 52533  53.2147 155.9288 0001982  51.4868 308.6301 15.08851417 28946,6917.845,95.437,541.082,538.339,0.0
52533.0,STARLINK-3951,PAYLOAD,2022-11-16 21:24:54,15.08851916,0.0001983,53.2147,155.6312,51.5894,308.5276,0.00028659,4.277e-05,0.0,0 STARLINK-3951,1 52533U 22051A   22320.89229618  .00004277  00000-0  28659-3 0  9995,2 52533  53.2147 155.6312 0001983  51.5894 308.5276 15.08851916 29026,6917.844,95.437,541.081,538.337,0.0
52533.0,STARLINK-3951,PAYLOAD,2022-11-17 13:18:45,15.088449300000002,0.0001936,53.214,152.6581,47.3755,312.74,0.00018072,2.59e-05,0.0,0 STARLINK-3951,1 52533U 22051A   22321.55469637  .00002590  00000-0  18072-3 0  9990,2 52533  53.2140 152.6581 0001936  47.3755 312.7400 15.08844930 29058,6917.865,95.437,541.07,538.391,0.0
